{
    "links": {
        "self": "http://www.neowsapp.com/rest/v1/neo/3645043?api_key=iIulBulltgU6a56xZRHN4H3l9WmuAYTsLGpBGhQ2"
    },
    "id": "3645043",
    "neo_reference_id": "3645043",
    "name": "(2013 NA15)",
    "designation": "2013 NA15",
    "nasa_jpl_url": "http://ssd.jpl.nasa.gov/sbdb.cgi?sstr=3645043",
    "absolute_magnitude_h": 22.5,
    "estimated_diameter": {
        "kilometers": {
            "estimated_diameter_min": 0.0840533402,
            "estimated_diameter_max": 0.1879489824
        },
        "meters": {
            "estimated_diameter_min": 84.0533402073,
            "estimated_diameter_max": 187.9489824394
        },
        "miles": {
            "estimated_diameter_min": 0.0522283081,
            "estimated_diameter_max": 0.1167860472
        },
        "feet": {
            "estimated_diameter_min": 275.7655606856,
            "estimated_diameter_max": 616.6305395464
        }
    },
    "is_potentially_hazardous_asteroid": false,
    "close_approach_data": [
        {
            "close_approach_date": "2013-08-01",
            "close_approach_date_full": "2013-Aug-01 12:45",
            "epoch_date_close_approach": 1375361100000,
            "relative_velocity": {
                "kilometers_per_second": "10.3470212635",
                "kilometers_per_hour": "37249.2765485845",
                "miles_per_hour": "23145.2518643135"
            },
            "miss_distance": {
                "astronomical": "0.1279252763",
                "lunar": "49.7629324807",
                "kilometers": "19137348.853641481",
                "miles": "11891397.1662391978"
            },
            "orbiting_body": "Earth"
        }
    ],
    "orbital_data": {
        "orbit_id": "11",
        "orbit_determination_date": "2017-04-06 08:45:24",
        "first_observation_date": "2013-07-13",
        "last_observation_date": "2013-08-16",
        "data_arc_in_days": 34,
        "observations_used": 43,
        "orbit_uncertainty": "7",
        "minimum_orbit_intersection": ".114621",
        "jupiter_tisserand_invariant": "4.082",
        "epoch_osculation": "2459000.5",
        "eccentricity": ".3762220965150382",
        "semi_major_axis": "1.703087547850727",
        "inclination": "14.34828601837706",
        "ascending_node_longitude": "118.4688955765603",
        "orbital_period": "811.8090477222993",
        "perihelion_distance": "1.062348380049671",
        "perihelion_argument": "226.3493271395267",
        "aphelion_distance": "2.343826715651782",
        "perihelion_time": "2458972.903401416469",
        "mean_anomaly": "12.2378230668224",
        "mean_motion": ".4434540376336721",
        "equinox": "J2000",
        "orbit_class": {
            "orbit_class_type": "AMO",
            "orbit_class_description": "Near-Earth asteroid orbits similar to that of 1221 Amor",
            "orbit_class_range": "1.017 AU < q (perihelion) < 1.3 AU"
        }
    },
    "is_sentry_object": false
}